start=new Date('2021-10-22T00:00:00.000Z').valueOf();
sats=[{"EPOCH":"2021-10-21T13:00:24.931872","LAUNCH_DATE":"2020-06-04","SEMIMAJOR_AXIS":"6925.353","ELEMENT_SET_NO":"999","PERIAPSIS":"546.434","DECAY_DATE":null,"ARG_OF_PERICENTER":"98.9286","TLE_LINE2":"2 45706  53.0555  19.9649 0001132  98.9286 261.1832 15.06398598 77960","MEAN_MOTION":"15.06398598","APOAPSIS":"548.002","MEAN_MOTION_DOT":"-0.00001754","REV_AT_EPOCH":"7796","TLE_LINE1":"1 45706U 20035BB  21294.54195523 -.00001754  00000-0 -98912-4 0  9996","RA_OF_ASC_NODE":"19.9649","TIME_SYSTEM":"UTC","EPHEMERIS_TYPE":"0","OBJECT_NAME":"STARLINK-1411","CENTER_NAME":"EARTH","PERIOD":"95.592","ECCENTRICITY":"0.00011320","RCS_SIZE":"LARGE","MEAN_MOTION_DDOT":"0.0000000000000","GP_ID":"187810053","FILE":"3176553","SITE":"AFETR","MEAN_ANOMALY":"261.1832","OBJECT_ID":"2020-035BB","INCLINATION":"53.0555","BSTAR":"-0.00009891200000","REF_FRAME":"TEME","MEAN_ELEMENT_THEORY":"SGP4","NORAD_CAT_ID":"45706","COUNTRY_CODE":"US","OBJECT_TYPE":"PAYLOAD","CLASSIFICATION_TYPE":"U"},{"MEAN_ANOMALY":"271.4741","FILE":"3176553","SITE":"AFETR","OBJECT_ID":"2020-035BC","MEAN_MOTION_DDOT":"0.0000000000000","GP_ID":"187808803","OBJECT_TYPE":"PAYLOAD","NORAD_CAT_ID":"45707","COUNTRY_CODE":"US","CLASSIFICATION_TYPE":"U","INCLINATION":"53.0563","BSTAR":"-0.00007639500000","MEAN_ELEMENT_THEORY":"SGP4","REF_FRAME":"TEME","REV_AT_EPOCH":"7797","TLE_LINE1":"1 45707U 20035BC  21294.53825743 -.00001419  00000-0 -76395-4 0  9999","MEAN_MOTION_DOT":"-0.00001419","APOAPSIS":"548.061","RA_OF_ASC_NODE":"19.9823","EPHEMERIS_TYPE":"0","TIME_SYSTEM":"UTC","ELEMENT_SET_NO":"999","PERIAPSIS":"546.349","LAUNCH_DATE":"2020-06-04","EPOCH":"2021-10-21T12:55:05.441952","SEMIMAJOR_AXIS":"6925.340","ARG_OF_PERICENTER":"88.6389","TLE_LINE2":"2 45707  53.0563  19.9823 0001236  88.6389 271.4741 15.06402695 77977","MEAN_MOTION":"15.06402695","DECAY_DATE":null,"ECCENTRICITY":"0.00012360","RCS_SIZE":"LARGE","OBJECT_NAME":"STARLINK-1412","PERIOD":"95.592","CENTER_NAME":"EARTH"},{"CENTER_NAME":"EARTH","PERIOD":"95.592","OBJECT_NAME":"STARLINK-1418","RCS_SIZE":"LARGE","ECCENTRICITY":"0.00011930","DECAY_DATE":null,"ARG_OF_PERICENTER":"93.8866","TLE_LINE2":"2 45708  53.0550  19.5104 0001193  93.8866 266.2260 15.06397954 77993","MEAN_MOTION":"15.06397954","SEMIMAJOR_AXIS":"6925.355","LAUNCH_DATE":"2020-06-04","EPOCH":"2021-10-21T15:29:00.457152","PERIAPSIS":"546.394","ELEMENT_SET_NO":"999","EPHEMERIS_TYPE":"0","TIME_SYSTEM":"UTC","RA_OF_ASC_NODE":"19.5104","APOAPSIS":"548.046","MEAN_MOTION_DOT":"-0.00000170","REV_AT_EPOCH":"7799","TLE_LINE1":"1 45708U 20035BD  21294.64514418 -.00000170  00000-0  74844-5 0  9996","REF_FRAME":"TEME","MEAN_ELEMENT_THEORY":"SGP4","BSTAR":"0.00000748440000","INCLINATION":"53.0550","CLASSIFICATION_TYPE":"U","COUNTRY_CODE":"US","NORAD_CAT_ID":"45708","OBJECT_TYPE":"PAYLOAD","GP_ID":"187839201","MEAN_MOTION_DDOT":"0.0000000000000","OBJECT_ID":"2020-035BD","SITE":"AFETR","FILE":"3176920","MEAN_ANOMALY":"266.2260"},{"LAUNCH_DATE":"2020-06-04","SEMIMAJOR_AXIS":"6925.378","EPOCH":"2021-10-21T14:46:33.735936","PERIAPSIS":"546.397","ELEMENT_SET_NO":"999","DECAY_DATE":null,"TLE_LINE2":"2 45709  53.0550  19.6287 0001222  94.4974 265.6154 15.06390238 77945","MEAN_MOTION":"15.06390238","ARG_OF_PERICENTER":"94.4974","MEAN_MOTION_DOT":"-0.00000020","APOAPSIS":"548.090","REV_AT_EPOCH":"7794","TLE_LINE1":"1 45709U 20035BE  21294.61566824 -.00000020  00000-0  17549-4 0  9994","TIME_SYSTEM":"UTC","EPHEMERIS_TYPE":"0","RA_OF_ASC_NODE":"19.6287","OBJECT_NAME":"STARLINK-1421","CENTER_NAME":"EARTH","PERIOD":"95.593","ECCENTRICITY":"0.00012220","RCS_SIZE":"LARGE","MEAN_MOTION_DDOT":"0.0000000000000","GP_ID":"187839446","SITE":"AFETR","FILE":"3176920","MEAN_ANOMALY":"265.6154","OBJECT_ID":"2020-035BE","BSTAR":"0.00001754900000","INCLINATION":"53.0550","REF_FRAME":"TEME","MEAN_ELEMENT_THEORY":"SGP4","COUNTRY_CODE":"US","NORAD_CAT_ID":"45709","OBJECT_TYPE":"PAYLOAD","CLASSIFICATION_TYPE":"U"},{"ECCENTRICITY":"0.00012690","RCS_SIZE":"LARGE","OBJECT_NAME":"STARLINK-1423","CENTER_NAME":"EARTH","PERIOD":"95.593","APOAPSIS":"548.130","MEAN_MOTION_DOT":"-0.00000128","TLE_LINE1":"1 45710U 20035BF  21294.54563353 -.00000128  00000-0  10307-4 0  9996","REV_AT_EPOCH":"7797","RA_OF_ASC_NODE":"19.9565","TIME_SYSTEM":"UTC","EPHEMERIS_TYPE":"0","LAUNCH_DATE":"2020-06-04","EPOCH":"2021-10-21T13:05:42.736992","SEMIMAJOR_AXIS":"6925.386","PERIAPSIS":"546.372","ELEMENT_SET_NO":"999","DECAY_DATE":null,"ARG_OF_PERICENTER":"98.0154","TLE_LINE2":"2 45710  53.0547  19.9565 0001269  98.0154 262.0979 15.06387807 77973","MEAN_MOTION":"15.06387807","NORAD_CAT_ID":"45710","COUNTRY_CODE":"US","OBJECT_TYPE":"PAYLOAD","CLASSIFICATION_TYPE":"U","INCLINATION":"53.0547","BSTAR":"0.00001030700000","REF_FRAME":"TEME","MEAN_ELEMENT_THEORY":"SGP4","FILE":"3176553","SITE":"AFETR","MEAN_ANOMALY":"262.0979","OBJECT_ID":"2020-035BF","MEAN_MOTION_DDOT":"0.0000000000000","GP_ID":"187809554"},{"CLASSIFICATION_TYPE":"U","NORAD_CAT_ID":"45711","COUNTRY_CODE":"US","OBJECT_TYPE":"PAYLOAD","REF_FRAME":"TEME","MEAN_ELEMENT_THEORY":"SGP4","INCLINATION":"53.0558","BSTAR":"-0.00014111000000","OBJECT_ID":"2020-035BG","FILE":"3176920","SITE":"AFETR","MEAN_ANOMALY":"258.1794","GP_ID":"187838450","MEAN_MOTION_DDOT":"0.0000000000000","RCS_SIZE":"LARGE","ECCENTRICITY":"0.00011080","CENTER_NAME":"EARTH","PERIOD":"95.593","OBJECT_NAME":"STARLINK-1433","RA_OF_ASC_NODE":"19.7434","EPHEMERIS_TYPE":"0","TIME_SYSTEM":"UTC","APOAPSIS":"548.013","MEAN_MOTION_DOT":"-0.00002382","REV_AT_EPOCH":"7797","TLE_LINE1":"1 45711U 20035BG  21294.59355741 -.00002382  00000-0 -14111-3 0  9993","DECAY_DATE":null,"TLE_LINE2":"2 45711  53.0558  19.7434 0001108 101.9319 258.1794 15.06389493 77972","ARG_OF_PERICENTER":"101.9319","MEAN_MOTION":"15.06389493","SEMIMAJOR_AXIS":"6925.381","LAUNCH_DATE":"2020-06-04","EPOCH":"2021-10-21T14:14:43.360224","ELEMENT_SET_NO":"999","PERIAPSIS":"546.478"},{"OBJECT_NAME":"STARLINK-1434","CENTER_NAME":"EARTH","PERIOD":"95.592","ECCENTRICITY":"0.00011010","RCS_SIZE":"LARGE","LAUNCH_DATE":"2020-06-04","SEMIMAJOR_AXIS":"6925.362","EPOCH":"2021-10-21T17:20:28.407264","ELEMENT_SET_NO":"999","PERIAPSIS":"546.465","DECAY_DATE":null,"MEAN_MOTION":"15.06395489","TLE_LINE2":"2 45712  53.0561  19.1570 0001101  95.8049 264.3065 15.06395489 78003","ARG_OF_PERICENTER":"95.8049","APOAPSIS":"547.990","MEAN_MOTION_DOT":"0.00000939","TLE_LINE1":"1 45712U 20035BH  21294.72255101  .00000939  00000-0  81949-4 0  9996","REV_AT_EPOCH":"7800","EPHEMERIS_TYPE":"0","TIME_SYSTEM":"UTC","RA_OF_ASC_NODE":"19.1570","BSTAR":"0.00008194900000","INCLINATION":"53.0561","REF_FRAME":"TEME","MEAN_ELEMENT_THEORY":"SGP4","COUNTRY_CODE":"US","NORAD_CAT_ID":"45712","OBJECT_TYPE":"PAYLOAD","CLASSIFICATION_TYPE":"U","MEAN_MOTION_DDOT":"0.0000000000000","GP_ID":"187838702","SITE":"AFETR","FILE":"3176920","MEAN_ANOMALY":"264.3065","OBJECT_ID":"2020-035BH"},{"OBJECT_NAME":"STARLINK-1436","CENTER_NAME":"EARTH","PERIOD":"95.592","ECCENTRICITY":"0.00012230","RCS_SIZE":"LARGE","LAUNCH_DATE":"2020-06-04","EPOCH":"2021-10-21T11:27:30.594816","SEMIMAJOR_AXIS":"6925.358","PERIAPSIS":"546.376","ELEMENT_SET_NO":"999","DECAY_DATE":null,"TLE_LINE2":"2 45713  53.0548  40.2632 0001223 111.8967 248.2152 15.06396819 77270","ARG_OF_PERICENTER":"111.8967","MEAN_MOTION":"15.06396819","MEAN_MOTION_DOT":"0.00000427","APOAPSIS":"548.070","TLE_LINE1":"1 45713U 20035BJ  21294.47743744  .00000427  00000-0  47547-4 0  9992","REV_AT_EPOCH":"7727","EPHEMERIS_TYPE":"0","TIME_SYSTEM":"UTC","RA_OF_ASC_NODE":"40.2632","BSTAR":"0.00004754700000","INCLINATION":"53.0548","REF_FRAME":"TEME","MEAN_ELEMENT_THEORY":"SGP4","COUNTRY_CODE":"US","NORAD_CAT_ID":"45713","OBJECT_TYPE":"PAYLOAD","CLASSIFICATION_TYPE":"U","MEAN_MOTION_DDOT":"0.0000000000000","GP_ID":"187816447","SITE":"AFETR","FILE":"3176739","MEAN_ANOMALY":"248.2152","OBJECT_ID":"2020-035BJ"},{"COUNTRY_CODE":"US","NORAD_CAT_ID":"45714","OBJECT_TYPE":"PAYLOAD","CLASSIFICATION_TYPE":"U","BSTAR":"-0.00048829000000","INCLINATION":"53.0556","REF_FRAME":"TEME","MEAN_ELEMENT_THEORY":"SGP4","SITE":"AFETR","FILE":"3176920","MEAN_ANOMALY":"255.2655","OBJECT_ID":"2020-035BK","MEAN_MOTION_DDOT":"0.0000000000000","GP_ID":"187838200","ECCENTRICITY":"0.00008620","RCS_SIZE":"LARGE","OBJECT_NAME":"STARLINK-1437","CENTER_NAME":"EARTH","PERIOD":"95.590","APOAPSIS":"547.724","MEAN_MOTION_DOT":"-0.00007552","TLE_LINE1":"1 45714U 20035BK  21294.73360816 -.00007552  00000-0 -48829-3 0  9998","REV_AT_EPOCH":"7800","EPHEMERIS_TYPE":"0","TIME_SYSTEM":"UTC","RA_OF_ASC_NODE":"19.1135","LAUNCH_DATE":"2020-06-04","SEMIMAJOR_AXIS":"6925.262","EPOCH":"2021-10-21T17:36:23.745024","PERIAPSIS":"546.530","ELEMENT_SET_NO":"999","DECAY_DATE":null,"TLE_LINE2":"2 45714  53.0556  19.1135 0000862 104.8429 255.2655 15.06428310 78006","ARG_OF_PERICENTER":"104.8429","MEAN_MOTION":"15.06428310"},{"PERIOD":"92.140","CENTER_NAME":"EARTH","OBJECT_NAME":"STARLINK-1439","RCS_SIZE":"LARGE","ECCENTRICITY":"0.00034560","ARG_OF_PERICENTER":"12.0084","TLE_LINE2":"2 45716  52.9992 238.4805 0003456  12.0084 348.1011 15.62844149 79945","MEAN_MOTION":"15.62844149","DECAY_DATE":null,"PERIAPSIS":"377.113","ELEMENT_SET_NO":"999","LAUNCH_DATE":"2020-06-04","SEMIMAJOR_AXIS":"6757.583","EPOCH":"2021-10-21T13:05:04.389216","RA_OF_ASC_NODE":"238.4805","EPHEMERIS_TYPE":"0","TIME_SYSTEM":"UTC","REV_AT_EPOCH":"7994","TLE_LINE1":"1 45716U 20035BM  21294.54518969  .00123329  00000-0  13274-2 0  9997","MEAN_MOTION_DOT":"0.00123329","APOAPSIS":"381.784","MEAN_ELEMENT_THEORY":"SGP4","REF_FRAME":"TEME","INCLINATION":"52.9992","BSTAR":"0.00132740000000","CLASSIFICATION_TYPE":"U","OBJECT_TYPE":"PAYLOAD","NORAD_CAT_ID":"45716","COUNTRY_CODE":"US","GP_ID":"187808804","MEAN_MOTION_DDOT":"0.0000000000000","OBJECT_ID":"2020-035BM","MEAN_ANOMALY":"348.1011","FILE":"3176553","SITE":"AFETR"}];
